SHENZHOU-21 (SZ-21)     
1 66263U 25246A   25306.17586037  .00031797  00000+0  38131-3 0  9990
2 66263  41.4666 263.0710 0006682 308.7013  51.3228 15.60215133257670
CZ-2F R/B               
1 66264U 25246B   25307.88060596  .00992096  75791-5  64782-3 0  9991
2 66264  41.4651 251.4357 0096961 149.8032 210.8459 16.06270355   523
